STARLINK-30069          
1 56834U 23079M   26067.48212902 -.00002416  00000+0 -80472-4 0  9995
2 56834  42.9986 110.4464 0000469 272.6695  87.4103 15.26726881152740
STARLINK-32682          
1 62196U 24229E   26068.48891601  .00030515  00000+0  11135-2 0  9998
2 62196  42.9945 239.1712 0001206 206.4951 153.5840 15.27589471 70901
